STARLINK-1434           
1 45712U 20035BH  26068.24137979  .00054112  00000+0  20295-2 0  9995
2 45712  53.0547  22.1128 0005343  88.0400 272.1210 15.26724568319325
STARLINK-31182          
1 59159U 24044H   26068.45386158 -.00003358  00000+0 -11253-3 0  9990
2 59159  42.9980 108.0029 0000388 227.2517 132.8302 15.27593573113560
